TIANQI-37               
1 67476U 26010A   26039.27753693  .00000165  00000+0  15719-3 0  9998
2 67476  44.9825 296.6529 0012909  70.2546 289.9683 14.13528441  3324
TIANQI-38               
1 67477U 26010B   26039.27310946  .00000208  00000+0  17865-3 0  9991
2 67477  44.9788 296.6199 0011754  75.6443 284.5700 14.13905796  3321
TIANQI-39               
1 67478U 26010C   26039.27859865  .00000167  00000+0  15988-3 0  9998
2 67478  44.9839 296.6613 0016488  82.3005 277.9705 14.13055169  3329
TIANQI-40               
1 67479U 26010D   26040.19213046  .00000156  00000+0  15351-3 0  9999
2 67479  44.9786 292.4342 0011741  80.4003 279.8161 14.13182235  3454
SZ-20 MODULE            
1 67481U 25082C   26040.96928673  .00024628  00000+0  27050-3 0  9993
2 67481  41.4800  16.3066 0006962 145.5631 214.5661 15.62594222273280
2025-313BE              
1 67482U 25313BE  26040.98738471  .00063906  00000+0  24995-2 0  9994
2 67482  97.4058 117.8480 0008754  85.7854 274.4385 15.25562216  3744
ION SCV-021             
1 67483U 25276DT  26034.18647169 -.00137880  00000+0 -12184-1 0  9992
2 67483  97.5347 109.4970 0011364 207.9438 152.1175 14.97059561  2554
STARLINK-36551          
1 67493U 26012A   26041.58336806 -.01849361  00000+0 -32405-1 0  9990
2 67493  43.0000 108.5456 0001384 278.9421  98.6026 15.53216100  4713
STARLINK-36396          
1 67494U 26012B   26041.58336806  .00133287  00000+0  22469-2 0  9991
2 67494  43.0009 109.3516 0000790 351.1810  59.9573 15.50483626  4718
STARLINK-36550          
1 67495U 26012C   26041.58336806 -.00047285  00000+0 -80475-3 0  9998
2 67495  43.0001 108.8456 0001035 280.6393 335.1167 15.50590063  4715
STARLINK-36534          
1 67496U 26012D   26041.58336806 -.01916552  00000+0 -34111-1 0  9996
2 67496  43.0002 108.5615 0001391 284.7692  85.9662 15.52368322  4659
STARLINK-36555          
1 67497U 26012E   26041.58336806 -.02538201  00000+0 -45401-1 0  9993
2 67497  42.9997 108.5784 0001291 276.2791  87.5842 15.52623615  4717
